[{"OBJECT_NAME":"STARLINK-4576","OBJECT_ID":"2022-101AR","EPOCH":"2026-02-13T16:47:11.776704","MEAN_MOTION":15.08839312,"ECCENTRICITY":0.00012941,"INCLINATION":53.2182,"RA_OF_ASC_NODE":161.8042,"ARG_OF_PERICENTER":79.047,"MEAN_ANOMALY":281.0668,"EPHEMERIS_TYPE":0,"CLASSIFICATION_TYPE":"U","NORAD_CAT_ID":53566,"ELEMENT_SET_NO":999,"REV_AT_EPOCH":19351,"BSTAR":3.1753583e-5,"MEAN_MOTION_DOT":2.18e-6,"MEAN_MOTION_DDOT":0},{"OBJECT_NAME":"STARLINK-4585","OBJECT_ID":"2022-101AS","EPOCH":"2026-02-13T15:27:43.769376","MEAN_MOTION":15.08838324,"ECCENTRICITY":0.00014427,"INCLINATION":53.2173,"RA_OF_ASC_NODE":162.1693,"ARG_OF_PERICENTER":86.1169,"MEAN_ANOMALY":273.9988,"EPHEMERIS_TYPE":0,"CLASSIFICATION_TYPE":"U","NORAD_CAT_ID":53567,"ELEMENT_SET_NO":999,"REV_AT_EPOCH":19281,"BSTAR":5.6952872e-5,"MEAN_MOTION_DOT":6.19e-6,"MEAN_MOTION_DDOT":0},{"OBJECT_NAME":"STARLINK-4583","OBJECT_ID":"2022-101AT","EPOCH":"2026-02-13T13:20:30.375168","MEAN_MOTION":15.08832852,"ECCENTRICITY":0.0001436,"INCLINATION":53.2179,"RA_OF_ASC_NODE":162.3323,"ARG_OF_PERICENTER":110.2221,"MEAN_ANOMALY":249.8926,"EPHEMERIS_TYPE":0,"CLASSIFICATION_TYPE":"U","NORAD_CAT_ID":53568,"ELEMENT_SET_NO":999,"REV_AT_EPOCH":19349,"BSTAR":-5.4032015e-5,"MEAN_MOTION_DOT":-1.148e-5,"MEAN_MOTION_DDOT":0},{"OBJECT_NAME":"STARLINK-4582","OBJECT_ID":"2022-101AU","EPOCH":"2026-02-13T16:52:29.986176","MEAN_MOTION":15.08843872,"ECCENTRICITY":0.0001419,"INCLINATION":53.2171,"RA_OF_ASC_NODE":161.8251,"ARG_OF_PERICENTER":104.0147,"MEAN_ANOMALY":256.1003,"EPHEMERIS_TYPE":0,"CLASSIFICATION_TYPE":"U","NORAD_CAT_ID":53569,"ELEMENT_SET_NO":999,"REV_AT_EPOCH":19349,"BSTAR":-2.1917633e-5,"MEAN_MOTION_DOT":-6.37e-6,"MEAN_MOTION_DDOT":0},{"OBJECT_NAME":"STARLINK-4550","OBJECT_ID":"2022-101AV","EPOCH":"2026-02-13T15:01:13.702656","MEAN_MOTION":15.0882217,"ECCENTRICITY":0.00012564,"INCLINATION":53.2179,"RA_OF_ASC_NODE":162.0574,"ARG_OF_PERICENTER":103.9173,"MEAN_ANOMALY":256.1959,"EPHEMERIS_TYPE":0,"CLASSIFICATION_TYPE":"U","NORAD_CAT_ID":53570,"ELEMENT_SET_NO":999,"REV_AT_EPOCH":19350,"BSTAR":-6.8818943e-5,"MEAN_MOTION_DOT":-1.382e-5,"MEAN_MOTION_DDOT":0},{"OBJECT_NAME":"STARLINK-4584","OBJECT_ID":"2022-101AW","EPOCH":"2026-02-13T16:41:53.201760","MEAN_MOTION":15.08837866,"ECCENTRICITY":0.00010466,"INCLINATION":53.2179,"RA_OF_ASC_NODE":161.7791,"ARG_OF_PERICENTER":81.2423,"MEAN_ANOMALY":278.8688,"EPHEMERIS_TYPE":0,"CLASSIFICATION_TYPE":"U","NORAD_CAT_ID":53571,"ELEMENT_SET_NO":999,"REV_AT_EPOCH":19351,"BSTAR":3.8893606e-5,"MEAN_MOTION_DOT":3.31e-6,"MEAN_MOTION_DDOT":0},{"OBJECT_NAME":"STARLINK-4555","OBJECT_ID":"2022-101AX","EPOCH":"2026-02-13T16:04:44.762592","MEAN_MOTION":15.08835559,"ECCENTRICITY":0.00012422,"INCLINATION":53.2169,"RA_OF_ASC_NODE":161.6235,"ARG_OF_PERICENTER":101.4185,"MEAN_ANOMALY":258.6947,"EPHEMERIS_TYPE":0,"CLASSIFICATION_TYPE":"U","NORAD_CAT_ID":53572,"ELEMENT_SET_NO":999,"REV_AT_EPOCH":19282,"BSTAR":1.4837028e-5,"MEAN_MOTION_DOT":-5.2e-7,"MEAN_MOTION_DDOT":0},{"OBJECT_NAME":"STARLINK-4559","OBJECT_ID":"2022-101AZ","EPOCH":"2026-02-13T17:45:26.284320","MEAN_MOTION":15.08825687,"ECCENTRICITY":0.00014298,"INCLINATION":53.2184,"RA_OF_ASC_NODE":161.3471,"ARG_OF_PERICENTER":101.2502,"MEAN_ANOMALY":258.8651,"EPHEMERIS_TYPE":0,"CLASSIFICATION_TYPE":"U","NORAD_CAT_ID":53574,"ELEMENT_SET_NO":999,"REV_AT_EPOCH":19283,"BSTAR":-8.0578499e-5,"MEAN_MOTION_DOT":-1.57e-5,"MEAN_MOTION_DDOT":0},{"OBJECT_NAME":"STARLINK-4551","OBJECT_ID":"2022-101BA","EPOCH":"2026-02-13T13:09:53.525088","MEAN_MOTION":15.08835914,"ECCENTRICITY":0.00012379,"INCLINATION":53.2174,"RA_OF_ASC_NODE":162.2871,"ARG_OF_PERICENTER":93.327,"MEAN_ANOMALY":266.7864,"EPHEMERIS_TYPE":0,"CLASSIFICATION_TYPE":"U","NORAD_CAT_ID":53575,"ELEMENT_SET_NO":999,"REV_AT_EPOCH":19349,"BSTAR":-3.2629279e-5,"MEAN_MOTION_DOT":-8.07e-6,"MEAN_MOTION_DDOT":0},{"OBJECT_NAME":"STARLINK-4581","OBJECT_ID":"2022-101BB","EPOCH":"2026-02-13T13:11:16.699776","MEAN_MOTION":15.08832081,"ECCENTRICITY":0.00012523,"INCLINATION":53.2171,"RA_OF_ASC_NODE":162.2892,"ARG_OF_PERICENTER":93.9155,"MEAN_ANOMALY":266.198,"EPHEMERIS_TYPE":0,"CLASSIFICATION_TYPE":"U","NORAD_CAT_ID":53576,"ELEMENT_SET_NO":999,"REV_AT_EPOCH":19362,"BSTAR":5.160215e-6,"MEAN_MOTION_DOT":-2.06e-6,"MEAN_MOTION_DDOT":0},{"OBJECT_NAME":"STARLINK-4553","OBJECT_ID":"2022-101BC","EPOCH":"2026-02-13T17:50:44.162880","MEAN_MOTION":15.08841154,"ECCENTRICITY":0.00012271,"INCLINATION":53.2172,"RA_OF_ASC_NODE":161.3691,"ARG_OF_PERICENTER":87.3207,"MEAN_ANOMALY":272.7925,"EPHEMERIS_TYPE":0,"CLASSIFICATION_TYPE":"U","NORAD_CAT_ID":53577,"ELEMENT_SET_NO":999,"REV_AT_EPOCH":19365,"BSTAR":2.1409899e-5,"MEAN_MOTION_DOT":5.3e-7,"MEAN_MOTION_DDOT":0},{"OBJECT_NAME":"STARLINK-4556","OBJECT_ID":"2022-101BD","EPOCH":"2026-02-13T17:34:49.439424","MEAN_MOTION":15.08837209,"ECCENTRICITY":0.00014166,"INCLINATION":53.2158,"RA_OF_ASC_NODE":161.3036,"ARG_OF_PERICENTER":96.7893,"MEAN_ANOMALY":263.326,"EPHEMERIS_TYPE":0,"CLASSIFICATION_TYPE":"U","NORAD_CAT_ID":53578,"ELEMENT_SET_NO":999,"REV_AT_EPOCH":19283,"BSTAR":-2.739058e-6,"MEAN_MOTION_DOT":-3.32e-6,"MEAN_MOTION_DDOT":0},{"OBJECT_NAME":"STARLINK-4580","OBJECT_ID":"2022-101BE","EPOCH":"2026-02-13T14:18:44.722080","MEAN_MOTION":15.08840353,"ECCENTRICITY":0.00012644,"INCLINATION":53.2172,"RA_OF_ASC_NODE":161.8738,"ARG_OF_PERICENTER":83.0893,"MEAN_ANOMALY":277.0243,"EPHEMERIS_TYPE":0,"CLASSIFICATION_TYPE":"U","NORAD_CAT_ID":53579,"ELEMENT_SET_NO":999,"REV_AT_EPOCH":19281,"BSTAR":-1.448139e-6,"MEAN_MOTION_DOT":-3.11e-6,"MEAN_MOTION_DDOT":0},{"OBJECT_NAME":"STARLINK-4691","OBJECT_ID":"2022-104A","EPOCH":"2026-02-13T03:07:10.300512","MEAN_MOTION":15.0884892,"ECCENTRICITY":0.00014575,"INCLINATION":53.2185,"RA_OF_ASC_NODE":354.6215,"ARG_OF_PERICENTER":105.2872,"MEAN_ANOMALY":254.8281,"EPHEMERIS_TYPE":0,"CLASSIFICATION_TYPE":"U","NORAD_CAT_ID":53588,"ELEMENT_SET_NO":999,"REV_AT_EPOCH":19238,"BSTAR":9.3302253e-5,"MEAN_MOTION_DOT":1.198e-5,"MEAN_MOTION_DDOT":0},{"OBJECT_NAME":"STARLINK-4673","OBJECT_ID":"2022-104B","EPOCH":"2026-02-13T05:51:26.111808","MEAN_MOTION":15.08839785,"ECCENTRICITY":0.000143,"INCLINATION":53.2197,"RA_OF_ASC_NODE":353.9094,"ARG_OF_PERICENTER":87.8667,"MEAN_ANOMALY":272.2488,"EPHEMERIS_TYPE":0,"CLASSIFICATION_TYPE":"U","NORAD_CAT_ID":53589,"ELEMENT_SET_NO":999,"REV_AT_EPOCH":19225,"BSTAR":1.8817e-6,"MEAN_MOTION_DOT":-2.58e-6,"MEAN_MOTION_DDOT":0},{"OBJECT_NAME":"STARLINK-4689","OBJECT_ID":"2022-104C","EPOCH":"2026-02-13T20:31:07.377600","MEAN_MOTION":15.08846817,"ECCENTRICITY":0.00013471,"INCLINATION":53.2185,"RA_OF_ASC_NODE":351.3286,"ARG_OF_PERICENTER":91.6518,"MEAN_ANOMALY":268.4629,"EPHEMERIS_TYPE":0,"CLASSIFICATION_TYPE":"U","NORAD_CAT_ID":53590,"ELEMENT_SET_NO":999,"REV_AT_EPOCH":19236,"BSTAR":-2.4347877e-5,"MEAN_MOTION_DOT":-6.75e-6,"MEAN_MOTION_DDOT":0}]
