STARLINK-4576           
1 53566U 22101AR  26044.69944186  .00000218  00000+0  31754-4 0  9998
2 53566  53.2182 161.8042 0001294  79.0470 281.0668 15.08839312193513
STARLINK-4585           
1 53567U 22101AS  26044.64425659  .00000619  00000+0  56953-4 0  9996
2 53567  53.2173 162.1693 0001442  86.1169 273.9988 15.08838324192818
STARLINK-4583           
1 53568U 22101AT  26044.55590712 -.00001148  00000+0 -54032-4 0  9996
2 53568  53.2179 162.3323 0001436 110.2221 249.8926 15.08832852193497
STARLINK-4582           
1 53569U 22101AU  26044.70312484 -.00000637  00000+0 -21918-4 0  9991
2 53569  53.2171 161.8251 0001419 104.0147 256.1003 15.08843872193494
STARLINK-4550           
1 53570U 22101AV  26044.62585304 -.00001382  00000+0 -68819-4 0  9996
2 53570  53.2179 162.0574 0001256 103.9173 256.1959 15.08822170193501
STARLINK-4584           
1 53571U 22101AW  26044.69575465  .00000331  00000+0  38894-4 0  9992
2 53571  53.2179 161.7791 0001046  81.2423 278.8688 15.08837866193511
STARLINK-4555           
1 53572U 22101AX  26044.66996253 -.00000052  00000+0  14837-4 0  9994
2 53572  53.2169 161.6235 0001242 101.4185 258.6947 15.08835559192825
STARLINK-4559           
1 53574U 22101AZ  26044.73988755 -.00001570  00000+0 -80578-4 0  9994
2 53574  53.2184 161.3471 0001429 101.2502 258.8651 15.08825687192837
STARLINK-4551           
1 53575U 22101BA  26044.54853617 -.00000807  00000+0 -32629-4 0  9998
2 53575  53.2174 162.2871 0001237  93.3270 266.7864 15.08835914193492
STARLINK-4581           
1 53576U 22101BB  26044.54949884 -.00000206  00000+0  51602-5 0  9996
2 53576  53.2171 162.2892 0001252  93.9155 266.1980 15.08832081193628
STARLINK-4553           
1 53577U 22101BC  26044.74356670  .00000053  00000+0  21410-4 0  9996
2 53577  53.2172 161.3691 0001227  87.3207 272.7925 15.08841154193650
STARLINK-4556           
1 53578U 22101BD  26044.73251666 -.00000332  00000+0 -27391-5 0  9992
2 53578  53.2158 161.3036 0001416  96.7893 263.3260 15.08837209192836
STARLINK-4580           
1 53579U 22101BE  26044.59635095 -.00000311  00000+0 -14481-5 0  9992
2 53579  53.2172 161.8738 0001264  83.0893 277.0243 15.08840353192812
STARLINK-4691           
1 53588U 22104A   26044.12998033  .00001198  00000+0  93302-4 0  9998
2 53588  53.2185 354.6215 0001457 105.2872 254.8281 15.08848920192381
STARLINK-4673           
1 53589U 22104B   26044.24405222 -.00000258  00000+0  18817-5 0  9991
2 53589  53.2197 353.9094 0001430  87.8667 272.2488 15.08839785192258
STARLINK-4689           
1 53590U 22104C   26044.85494650 -.00000675  00000+0 -24348-4 0  9992
2 53590  53.2185 351.3286 0001347  91.6518 268.4629 15.08846817192367
